[{"OBJECT_NAME":"STARLINK-30073","OBJECT_ID":"2023-079T","EPOCH":"2026-03-09T22:00:01.999584","MEAN_MOTION":15.27575359,"ECCENTRICITY":0.00020534,"INCLINATION":43.0005,"RA_OF_ASC_NODE":291.0924,"ARG_OF_PERICENTER":288.9142,"MEAN_ANOMALY":240.4544,"EPHEMERIS_TYPE":0,"CLASSIFICATION_TYPE":"U","NORAD_CAT_ID":56840,"ELEMENT_SET_NO":999,"REV_AT_EPOCH":574,"BSTAR":0.00066101027,"MEAN_MOTION_DOT":0.0001797,"MEAN_MOTION_DDOT":0},{"OBJECT_NAME":"STARLINK-36414","OBJECT_ID":"2026-008Z","EPOCH":"2026-03-09T09:59:01.911840","MEAN_MOTION":15.27598994,"ECCENTRICITY":0.00033183,"INCLINATION":42.9999,"RA_OF_ASC_NODE":206.469,"ARG_OF_PERICENTER":287.4655,"MEAN_ANOMALY":72.5833,"EPHEMERIS_TYPE":0,"CLASSIFICATION_TYPE":"U","NORAD_CAT_ID":67468,"ELEMENT_SET_NO":999,"REV_AT_EPOCH":953,"BSTAR":0.0013841496,"MEAN_MOTION_DOT":0.00038049,"MEAN_MOTION_DDOT":0}]
